[{"OBJECT_NAME":"IRIDE FM8","OBJECT_ID":"2025-276AN","EPOCH":"2026-03-09T18:00:06.771168","MEAN_MOTION":15.18849115,"ECCENTRICITY":0.00041319,"INCLINATION":97.4262,"RA_OF_ASC_NODE":143.9879,"ARG_OF_PERICENTER":23.1376,"MEAN_ANOMALY":337.0044,"EPHEMERIS_TYPE":0,"CLASSIFICATION_TYPE":"U","NORAD_CAT_ID":66702,"ELEMENT_SET_NO":999,"REV_AT_EPOCH":1532,"BSTAR":0.0003807505,"MEAN_MOTION_DOT":7.869e-5,"MEAN_MOTION_DDOT":0},{"OBJECT_NAME":"FLOCK 4H-20","OBJECT_ID":"2025-276BK","EPOCH":"2026-03-09T18:04:42.197952","MEAN_MOTION":15.1978993,"ECCENTRICITY":0.00014172,"INCLINATION":97.4281,"RA_OF_ASC_NODE":144.1685,"ARG_OF_PERICENTER":295.795,"MEAN_ANOMALY":64.3138,"EPHEMERIS_TYPE":0,"CLASSIFICATION_TYPE":"U","NORAD_CAT_ID":66723,"ELEMENT_SET_NO":999,"REV_AT_EPOCH":1458,"BSTAR":0.0004218455,"MEAN_MOTION_DOT":8.967e-5,"MEAN_MOTION_DDOT":0}]
